ONEWEB-0674             
1 55833U 23029AP  24130.84766611  .00000248  00000+0  63499-3 0  9996
2 55833  87.8947  82.6077 0001362  84.7044 275.4241 13.14503691 58470
ONEWEB-0675             
1 55834U 23029AQ  24130.95568241  .00000065  00000+0  13094-3 0  9991
2 55834  87.9129  97.8663 0002484  83.7078 276.4338 13.19727463 57595
ONEWEB-0720             
1 55835U 23029AR  24130.94778001  .00000185  00000+0  43077-3 0  9995
2 55835  87.9127  97.8689 0002113 100.8560 259.2811 13.19724871 57515
ONEWEB-0537             
1 56046U 23043A   24130.71333104 -.00000176  00000+0 -49466-3 0  9992
2 56046  87.9141  21.7355 0002024  74.7226 285.4129 13.16593838 57844
ONEWEB-0538             
1 56047U 23043B   24130.70699852 -.00000217  00000+0 -60138-3 0  9992
2 56047  87.9142  21.7559 0002082  85.5728 274.5640 13.16594044 57851
ONEWEB-0546             
1 56048U 23043C   24130.77033247  .00000203  00000+0  49790-3 0  9994
2 56048  87.9144  21.7066 0002349  60.3581 299.7784 13.16593292 57853
ONEWEB-0547             
1 56049U 23043D   24130.77871531  .00000128  00000+0  27893-3 0  9997
2 56049  87.9321  36.9309 0002351  84.2624 275.8778 13.21825578 56718
ONEWEB-0548             
1 56050U 23043E   24130.71966625  .00000011  00000+0 -52988-5 0  9999
2 56050  87.9144  21.7604 0001180  76.5094 283.6169 13.16596840 57844
